QIANFAN-1               
1 60379U 24140A   25286.99666396  .00000050  00000+0  58669-4 0  9995
2 60379  88.9739 305.4776 0018536  33.6678 326.5646 13.50976119 59287
QIANFAN-2               
1 60380U 24140B   25287.02544148  .00000053  00000+0  63124-4 0  9997
2 60380  88.9725 305.3221 0012884   9.4891 350.6501 13.50968302 59346
QIANFAN-3               
1 60381U 24140C   25286.95966269  .00000033  00000+0  32063-4 0  9997
2 60381  88.9722 305.4660 0014465  21.0761 339.0983 13.50968188 59241
QIANFAN-4               
1 60382U 24140D   25287.00901248  .00000039  00000+0  41232-4 0  9995
2 60382  88.9745 305.3436 0013207  11.9105 348.2356 13.50975150 59377
QIANFAN-5               
1 60383U 24140E   25286.98435168  .00000046  00000+0  52342-4 0  9997
2 60383  88.9722 305.4890 0016107  30.9536 329.2561 13.50971545 59235
QIANFAN-6               
1 60384U 24140F   25287.00496128  .00000046  00000+0  52761-4 0  9990
2 60384  88.9748 305.2171 0013540  17.5432 342.6184 13.50972842 59431
QIANFAN-7               
1 60385U 24140G   25286.95593481  .00000312  00000+0  12106-3 0  9998
2 60385  88.9754 300.7580 0013088 231.8050 128.1966 14.27576337 61866
QIANFAN-8               
1 60386U 24140H   25287.01313888  .00000047  00000+0  54503-4 0  9991
2 60386  88.9750 305.4528 0017047  17.8440 342.3306 13.50970944 59289
